{"type": "FeatureCollection", "features": [ {"type": "Feature", "properties": {"norad_id": 40664, "name": "SKY MEXICO-1", "group": "intelsat", "lat": -0.016686242328411902, "lon": -104.4998050384195, "alt_km": 35775.86045261773, "timestamp": "2025-12-12T16:50:32.815578+00:00", "meta": {"OBJECT_NAME": "SKY MEXICO-1", "OBJECT_ID": "2015-026B", "EPOCH": "2025-12-12T06:15:30.155616", "MEAN_MOTION": 1.00272539, "ECCENTRICITY": 0.00025402, "INCLINATION": 0.0355, "RA_OF_ASC_NODE": 77.8751, "ARG_OF_PERICENTER": 198.4364, "MEAN_ANOMALY": 180.0082, "EPHEMERIS_TYPE": 0, "CLASSIFICATION_TYPE": "U", "NORAD_CAT_ID": 40664, "ELEMENT_SET_NO": 999, "REV_AT_EPOCH": 3858, "BSTAR": 0, "MEAN_MOTION_DOT": -2.25e-06, "MEAN_MOTION_DDOT": 0}, "tle": {"line1": "1 40664U 15026B   25346.26076569 -.00000225  00000+0  00000+0 0  9993", "line2": "2 40664   0.0355  77.8751 0002540 198.4364 180.0082  1.00272539 38588"}}, "geometry": {"type": "Point", "coordinates": [-104.4998050384195, -0.016686242328411902]}}, {"type": "Feature", "properties": {"norad_id": 40874, "name": "INTELSAT 34 (IS-34)", "group": "intelsat", "lat": -0.02599150272754893, "lon": -81.22700633998045, "alt_km": 35786.996105804516, "timestamp": "2025-12-12T16:50:32.815590+00:00", "meta": {"OBJECT_NAME": "INTELSAT 34 (IS-34)", "OBJECT_ID": "2015-039A", "EPOCH": "2025-12-12T04:39:24.358752", "MEAN_MOTION": 1.00271377, "ECCENTRICITY": 3.903e-05, "INCLINATION": 0.0142, "RA_OF_ASC_NODE": 330.3916, "ARG_OF_PERICENTER": 191.6499, "MEAN_ANOMALY": 293.4489, "EPHEMERIS_TYPE": 0, "CLASSIFICATION_TYPE": "U", "NORAD_CAT_ID": 40874, "ELEMENT_SET_NO": 999, "REV_AT_EPOCH": 3775, "BSTAR": 0, "MEAN_MOTION_DOT": -2.76e-06, "MEAN_MOTION_DDOT": 0}, "tle": {"line1": "1 40874U 15039A   25346.19403193 -.00000276  00000+0  00000+0 0  9995", "line2": "2 40874   0.0142 330.3916 0000390 191.6499 293.4489  1.00271377 37757"}}, "geometry": {"type": "Point", "coordinates": [-81.22700633998045, -0.02599150272754893]}}, {"type": "Feature", "properties": {"norad_id": 41581, "name": "INTELSAT 31 (IS-31)", "group": "intelsat", "lat": -0.019643085295274677, "lon": -120.77510746503306, "alt_km": 35778.31050563671, "timestamp": "2025-12-12T16:50:32.815601+00:00", "meta": {"OBJECT_NAME": "INTELSAT 31 (IS-31)", "OBJECT_ID": "2016-035A", "EPOCH": "2025-12-11T21:37:13.469376", "MEAN_MOTION": 1.00272085, "ECCENTRICITY": 0.0001989, "INCLINATION": 0.0172, "RA_OF_ASC_NODE": 268.6419, "ARG_OF_PERICENTER": 307.2662, "MEAN_ANOMALY": 94.1931, "EPHEMERIS_TYPE": 0, "CLASSIFICATION_TYPE": "U", "NORAD_CAT_ID": 41581, "ELEMENT_SET_NO": 999, "REV_AT_EPOCH": 3480, "BSTAR": 0, "MEAN_MOTION_DOT": -1.42e-06, "MEAN_MOTION_DDOT": 0}, "tle": {"line1": "1 41581U 16035A   25345.90085034 -.00000142  00000+0  00000+0 0  9998", "line2": "2 41581   0.0172 268.6419 0001989 307.2662  94.1931  1.00272085 34807"}}, "geometry": {"type": "Point", "coordinates": [-120.77510746503306, -0.019643085295274677]}}, {"type": "Feature", "properties": {"norad_id": 41747, "name": "INTELSAT 36 (IS-36)", "group": "intelsat", "lat": 0.020481995465732504, "lon": 42.77348568419095, "alt_km": 35784.602771812286, "timestamp": "2025-12-12T16:50:32.815613+00:00", "meta": {"OBJECT_NAME": "INTELSAT 36 (IS-36)", "OBJECT_ID": "2016-053A", "EPOCH": "2025-12-11T19:58:55.649856", "MEAN_MOTION": 1.00270488, "ECCENTRICITY": 0.00016639, "INCLINATION": 0.0144, "RA_OF_ASC_NODE": 14.364, "ARG_OF_PERICENTER": 313.5424, "MEAN_ANOMALY": 121.097, "EPHEMERIS_TYPE": 0, "CLASSIFICATION_TYPE": "U", "NORAD_CAT_ID": 41747, "ELEMENT_SET_NO": 999, "REV_AT_EPOCH": 3407, "BSTAR": 0, "MEAN_MOTION_DOT": -1.6e-07, "MEAN_MOTION_DDOT": 0}, "tle": {"line1": "1 41747U 16053A   25345.83258854 -.00000016  00000+0  00000+0 0  9996", "line2": "2 41747   0.0144  14.3640 0001663 313.5424 121.0970  1.00270488 34074"}}, "geometry": {"type": "Point", "coordinates": [42.77348568419095, 0.020481995465732504]}}, {"type": "Feature", "properties": {"norad_id": 41945, "name": "INTELSAT 32E (IS-32E)", "group": "intelsat", "lat": -0.02833333029233582, "lon": -68.92523799938164, "alt_km": 35786.007394672066, "timestamp": "2025-12-12T16:50:32.815625+00:00", "meta": {"OBJECT_NAME": "INTELSAT 32E (IS-32E)", "OBJECT_ID": "2017-007B", "EPOCH": "2025-12-12T04:42:54.023904", "MEAN_MOTION": 1.00269838, "ECCENTRICITY": 5.914e-05, "INCLINATION": 0.037, "RA_OF_ASC_NODE": 83.6575, "ARG_OF_PERICENTER": 281.4227, "MEAN_ANOMALY": 103.6011, "EPHEMERIS_TYPE": 0, "CLASSIFICATION_TYPE": "U", "NORAD_CAT_ID": 41945, "ELEMENT_SET_NO": 999, "REV_AT_EPOCH": 3235, "BSTAR": 0, "MEAN_MOTION_DOT": -2.59e-06, "MEAN_MOTION_DDOT": 0}, "tle": {"line1": "1 41945U 17007B   25346.19645861 -.00000259  00000+0  00000+0 0  9993", "line2": "2 41945   0.0370  83.6575 0000591 281.4227 103.6011  1.00269838 32352"}}, "geometry": {"type": "Point", "coordinates": [-68.92523799938164, -0.02833333029233582]}}, {"type": "Feature", "properties": {"norad_id": 42818, "name": "INTELSAT 35E (IS-35E)", "group": "intelsat", "lat": -0.028034281002703804, "lon": -60.2101866179779, "alt_km": 35778.72608362591, "timestamp": "2025-12-12T16:50:32.815637+00:00", "meta": {"OBJECT_NAME": "INTELSAT 35E (IS-35E)", "OBJECT_ID": "2017-041A", "EPOCH": "2025-12-12T06:28:06.449376", "MEAN_MOTION": 1.00273512, "ECCENTRICITY": 0.00020807, "INCLINATION": 0.0179, "RA_OF_ASC_NODE": 6.3053, "ARG_OF_PERICENTER": 255.2527, "MEAN_ANOMALY": 242.1846, "EPHEMERIS_TYPE": 0, "CLASSIFICATION_TYPE": "U", "NORAD_CAT_ID": 42818, "ELEMENT_SET_NO": 999, "REV_AT_EPOCH": 3094, "BSTAR": 0, "MEAN_MOTION_DOT": -2.28e-06, "MEAN_MOTION_DDOT": 0}, "tle": {"line1": "1 42818U 17041A   25346.26951909 -.00000228  00000+0  00000+0 0  9998", "line2": "2 42818   0.0179   6.3053 0002080 255.2527 242.1846  1.00273512 30941"}}, "geometry": {"type": "Point", "coordinates": [-60.2101866179779, -0.028034281002703804]}}, {"type": "Feature", "properties": {"norad_id": 42950, "name": "INTELSAT 37E (IS-37E)", "group": "intelsat", "lat": -0.016165188010427926, "lon": -43.689721145371266, "alt_km": 35779.325749723925, "timestamp": "2025-12-12T16:50:32.815648+00:00", "meta": {"OBJECT_NAME": "INTELSAT 37E (IS-37E)", "OBJECT_ID": "2017-059A", "EPOCH": "2025-12-12T04:50:00.843360", "MEAN_MOTION": 1.0027217, "ECCENTRICITY": 0.00031043, "INCLINATION": 0.0177, "RA_OF_ASC_NODE": 347.6728, "ARG_OF_PERICENTER": 269.1018, "MEAN_ANOMALY": 238.884, "EPHEMERIS_TYPE": 0, "CLASSIFICATION_TYPE": "U", "NORAD_CAT_ID": 42950, "ELEMENT_SET_NO": 999, "REV_AT_EPOCH": 3019, "BSTAR": 0, "MEAN_MOTION_DOT": -1.31e-06, "MEAN_MOTION_DDOT": 0}, "tle": {"line1": "1 42950U 17059A   25346.20139865 -.00000131  00000+0  00000+0 0  9990", "line2": "2 42950   0.0177 347.6728 0003104 269.1018 238.8840  1.00272170 30195"}}, "geometry": {"type": "Point", "coordinates": [-43.689721145371266, -0.016165188010427926]}}, {"type": "Feature", "properties": {"norad_id": 43632, "name": "AZERSPACE 2 (IS-38)", "group": "intelsat", "lat": 0.01667909300908434, "lon": 19.397257628110854, "alt_km": 35788.24651563637, "timestamp": "2025-12-12T16:50:32.815660+00:00", "meta": {"OBJECT_NAME": "AZERSPACE 2 (IS-38)", "OBJECT_ID": "2018-074A", "EPOCH": "2025-12-11T06:30:38.803680", "MEAN_MOTION": 1.00271658, "ECCENTRICITY": 0.00014523, "INCLINATION": 0.0184, "RA_OF_ASC_NODE": 0.4784, "ARG_OF_PERICENTER": 266.8936, "MEAN_ANOMALY": 315.6295, "EPHEMERIS_TYPE": 0, "CLASSIFICATION_TYPE": "U", "NORAD_CAT_ID": 43632, "ELEMENT_SET_NO": 999, "REV_AT_EPOCH": 2656, "BSTAR": 0, "MEAN_MOTION_DOT": 1.43e-06, "MEAN_MOTION_DDOT": 0}, "tle": {"line1": "1 43632U 18074A   25345.27128245  .00000143  00000+0  00000+0 0  9994", "line2": "2 43632   0.0184   0.4784 0001452 266.8936 315.6295  1.00271658 26568"}}, "geometry": {"type": "Point", "coordinates": [19.397257628110854, 0.01667909300908434]}}, {"type": "Feature", "properties": {"norad_id": 43633, "name": "HORIZONS-3E", "group": "intelsat", "lat": -0.02566505492693078, "lon": 143.26236423670306, "alt_km": 35790.3069852959, "timestamp": "2025-12-12T16:50:32.815671+00:00", "meta": {"OBJECT_NAME": "HORIZONS-3E", "OBJECT_ID": "2018-074B", "EPOCH": "2025-12-12T05:01:38.705664", "MEAN_MOTION": 1.00269535, "ECCENTRICITY": 0.00011419, "INCLINATION": 0.0432, "RA_OF_ASC_NODE": 180.3522, "ARG_OF_PERICENTER": 101.4221, "MEAN_ANOMALY": 43.7961, "EPHEMERIS_TYPE": 0, "CLASSIFICATION_TYPE": "U", "NORAD_CAT_ID": 43633, "ELEMENT_SET_NO": 999, "REV_AT_EPOCH": 2646, "BSTAR": 0, "MEAN_MOTION_DOT": -2.1e-07, "MEAN_MOTION_DDOT": 0}, "tle": {"line1": "1 43633U 18074B   25346.20947576 -.00000021  00000+0  00000+0 0  9991", "line2": "2 43633   0.0432 180.3522 0001141 101.4221  43.7961  1.00269535 26468"}}, "geometry": {"type": "Point", "coordinates": [143.26236423670306, -0.02566505492693078]}}, {"type": "Feature", "properties": {"norad_id": 44333, "name": "AT&T T-16", "group": "intelsat", "lat": -0.006810236867360401, "lon": -126.58670550799742, "alt_km": 35785.40023933132, "timestamp": "2025-12-12T16:50:32.815682+00:00", "meta": {"OBJECT_NAME": "AT&T T-16", "OBJECT_ID": "2019-034A", "EPOCH": "2025-12-11T21:35:28.635072", "MEAN_MOTION": 1.0027134, "ECCENTRICITY": 7.8e-05, "INCLINATION": 0.0303, "RA_OF_ASC_NODE": 77.076, "ARG_OF_PERICENTER": 80.9177, "MEAN_ANOMALY": 145.8602, "EPHEMERIS_TYPE": 0, "CLASSIFICATION_TYPE": "U", "NORAD_CAT_ID": 44333, "ELEMENT_SET_NO": 999, "REV_AT_EPOCH": 2375, "BSTAR": 0, "MEAN_MOTION_DOT": -1.07e-06, "MEAN_MOTION_DDOT": 0}, "tle": {"line1": "1 44333U 19034A   25345.89963698 -.00000107  00000+0  00000+0 0  9998", "line2": "2 44333   0.0303  77.0760 0000780  80.9177 145.8602  1.00271340 23750"}}, "geometry": {"type": "Point", "coordinates": [-126.58670550799742, -0.006810236867360401]}}]}